COSMOS 2426 (717)       
1 29671U 06062B   20071.48353828  .00000039  00000-0  10000-3 0  9996
2 29671  65.0052 271.2218 0019698 169.7193 209.5366  2.12962359102819
COSMOS 2433 (720)       
1 32275U 07052A   20071.20237288 -.00000043  00000-0  10000-3 0  9997
2 32275  65.9509  32.1933 0005053 273.8584 339.5141  2.13104321 96318
COSMOS 2432 (719)       
1 32276U 07052B   20071.27354953 -.00000043  00000-0  10000-3 0  9994
2 32276  65.9631  32.2785 0012730 323.5417 294.8382  2.13103725 96316
COSMOS 2434 (721)       
1 32393U 07065A   20071.25019061  .00000040  00000-0  00000+0 0  9995
2 32393  64.6091 269.7891 0005137  81.0486  96.4692  2.13103095 95029
COSMOS 2436 (723)       
1 32395U 07065C   20071.28096874  .00000040  00000-0  10000-3 0  9992
2 32395  64.6197 269.8361 0015332   7.6145 329.7804  2.13102944 94955
COSMOS 2456 (730)       
1 36111U 09070A   20071.26144404  .00000032  00000-0  00000+0 0  9997
2 36111  64.2188 149.4549 0004126 315.0780  44.4641  2.13102786 79689
COSMOS 2457 (733)       
1 36112U 09070B   20071.46324027  .00000031  00000-0  00000+0 0  9990
2 36112  64.2006 149.3439 0005256 169.4826 108.6214  2.13101463 79694
COSMOS 2459 (731)       
1 36400U 10007A   20070.92897865 -.00000044  00000-0  10000-3 0  9997
2 36400  65.8558  31.1865 0027079 345.7498 272.9502  2.13105177 78033
COSMOS 2461 (735)       
1 36401U 10007B   20071.53283266 -.00000045  00000-0  10000-3 0  9991
2 36401  65.8480  31.1355 0006001  42.6783 228.4882  2.13102064 78044
COSMOS 2460 (732)       
1 36402U 10007C   20071.24056146 -.00000045  00000-0  10000-3 0  9995
2 36402  65.8389  31.1045 0002497 299.6983 146.5736  2.13101474 78042
COSMOS 2464 (736)       
1 37139U 10041C   20071.22633102  .00000040  00000-0  00000+0 0  9991
2 37139  64.2104 269.2778 0027770  14.4429   9.1098  2.13100789 74111
COSMOS 2474 (742)       
1 37829U 11055A   20070.85525440  .00000034  00000-0  00000-0 0  9990
2 37829  64.5382 150.4540 0009526 245.8429  17.2861  2.13101694 65670
COSMOS 2476 (744)       
1 37867U 11064A   20070.79362700  .00000034  00000-0  00000-0 0  9993
2 37867  64.5179 150.4986 0019560 238.5069  23.5622  2.13101942 65028
COSMOS 2477 (745)       
1 37868U 11064B   20071.05750480  .00000033  00000-0  00000-0 0  9999
2 37868  64.5266 150.5451 0017301 239.8479  43.2103  2.13101766 64985
COSMOS 2475 (743)       
1 37869U 11064C   20070.91706084  .00000034  00000-0  00000+0 0  9995
2 37869  64.5329 150.5511 0021089 261.8294 230.7902  2.13101851 64997
COSMOS 2485 (747)       
1 39155U 13019A   20071.44089694  .00000032  00000-0  00000+0 0  9995
2 39155  64.6864 150.7257 0020172 234.0464 209.1979  2.13101895 53512
COSMOS 2492 (754)       
1 39620U 14012A   20071.56045297 -.00000045  00000-0  10000-3 0  9990
2 39620  65.7278  30.8924 0015887 321.5648 248.5029  2.13103350 46469
COSMOS 2500 (755)       
1 40001U 14032A   20070.86438878 -.00000045  00000-0  00000-0 0  9996
2 40001  65.6697  30.8382 0006663 228.8714  27.9635  2.13102655 44660
COSMOS 2501 (702K)      
1 40315U 14075A   20071.28540300  .00000038  00000-0  00000+0 0  9992
2 40315  63.9282 270.2591 0014789 204.7260 170.8594  2.13098616 41084
COSMOS 2514 (751)       
1 41330U 16008A   20071.48644382 -.00000046  00000-0  00000+0 0  9995
2 41330  65.4714  30.7125 0010299 229.2454 327.0498  2.13103112 31840
COSMOS 2516 (753)       
1 41554U 16032A   20071.10110270  .00000040  00000-0  00000-0 0  9997
2 41554  64.1531 270.3075 0010251 215.1293 296.2488  2.13101741 29445
COSMOS 2522 (752)       
1 42939U 17055A   20070.81903074  .00000042  00000-0  00000+0 0  9991
2 42939  64.3828 270.4689 0005194 252.7761 268.7672  2.13102002 19194
COSMOS 2527 (756)       
1 43508U 18053A   20070.91731846  .00000034  00000-0  00000+0 0  9991
2 43508  64.8504 150.5705 0007625 232.9516  35.6540  2.13102640 13488
COSMOS 2529 (757)       
1 43687U 18086A   20070.89717362  .00000042  00000-0  00000+0 0  9998
2 43687  64.5960 270.5621 0008036 280.8745 256.2453  2.13102116 10504
COSMOS 2534 (758)       
1 44299U 19030A   20070.95084900  .00000042  00000-0  00000+0 0  9990
2 44299  64.6664 270.3652 0011770 299.3153  54.0678  2.13102001  6146
